ONEWEB-0716             
1 55177U 23004AP  25362.87219385  .00000020  00000+0  18794-4 0  9999
2 55177  87.9096  39.7319 0001867  89.9257 270.2088 13.17650906145151
ONEWEB-0717             
1 55178U 23004AQ  25362.62750329  .00000045  00000+0  82796-4 0  9991
2 55178  87.9104  39.7531 0001934 118.8065 241.3261 13.17650742145174
ONEWEB-0719             
1 55179U 23004AR  25362.63765287 -.00000015  00000+0 -71899-4 0  9993
2 55179  87.9103  39.7333 0002001  93.4907 266.6453 13.17648605145126
ONEWEB-0530             
1 55796U 23029A   25362.86494589  .00000063  00000+0  12411-3 0  9999
2 55796  87.9213 308.4536 0002048  92.6474 267.4894 13.20771015138660
ONEWEB-0534             
1 55797U 23029B   25362.85232993  .00000051  00000+0  92975-4 0  9999
2 55797  87.9213 308.4562 0001907  76.3857 283.7488 13.20770645138665
ONEWEB-0556             
1 55798U 23029C   25362.93437966 -.00000024  00000+0 -90311-4 0  9990
2 55798  87.9216 308.4403 0002759  76.0860 284.0580 13.20773292138679
ONEWEB-0562             
1 55799U 23029D   25362.92177051  .00000086  00000+0  17917-3 0  9992
2 55799  87.9210 308.4242 0002554  94.9210 265.2215 13.20772916138674
ONEWEB-0563             
1 55800U 23029E   25362.61243446 -.00000013  00000+0 -64641-4 0  9992
2 55800  87.9218 308.5144 0001991  72.9800 287.1552 13.20770287138623
